NORAD_CAT_ID,OBJECT_NAME,OBJECT_TYPE,EPOCH,MEAN_MOTION,ECCENTRICITY,INCLINATION,RA_OF_ASC_NODE,ARG_OF_PERICENTER,MEAN_ANOMALY,BSTAR,MEAN_MOTION_DOT,MEAN_MOTION_DDOT,TLE_LINE0,TLE_LINE1,TLE_LINE2,SEMIMAJOR_AXIS,PERIOD,APOGEE,PERIGEE,DECAYED
50163.0,STARLINK-3306,PAYLOAD,2024-02-22 22:59:49,15.08829204,0.0001331,53.2195,346.8241,132.1778,227.9327,0.00010232,1.34e-05,0.0,0 STARLINK-3306,1 50163U 21125H   24053.95820663  .00001340  00000-0  10232-3 0  9998,2 50163  53.2195 346.8241 0001331 132.1778 227.9327 15.08829204124151,6917.913,95.438,540.699,538.858,0.0
50163.0,STARLINK-3306,PAYLOAD,2024-02-23 05:21:21,15.08848042,0.0001892,53.2191,345.6344,127.7245,232.3919,-0.00011541,-2.125e-05,0.0,0 STARLINK-3306,1 50163U 21125H   24054.22316114 -.00002125  00000-0 -11541-3 0  9998,2 50163  53.2191 345.6344 0001892 127.7245 232.3919 15.08848042123718,6917.856,95.437,541.03,538.412,0.0
50163.0,STARLINK-3306,PAYLOAD,2024-02-23 22:50:36,15.08834502,0.0001648,53.2188,342.3637,123.6044,236.5105,6.2937e-05,7.14e-06,0.0,0 STARLINK-3306,1 50163U 21125H   24054.95180580  .00000714  00000-0  62937-4 0  9990,2 50163  53.2188 342.3637 0001648 123.6044 236.5105 15.08834502124309,6917.897,95.438,540.902,538.622,0.0
50163.0,STARLINK-3306,PAYLOAD,2024-02-24 02:01:22,15.08837056,0.0001534,53.2188,341.7685,116.9337,243.1812,7.9007e-05,9.7e-06,0.0,0 STARLINK-3306,1 50163U 21125H   24055.08428451  .00000970  00000-0  79007-4 0  9997,2 50163  53.2188 341.7685 0001534 116.9337 243.1812 15.08837056123843,6917.889,95.438,540.816,538.693,0.0
50163.0,STARLINK-3306,PAYLOAD,2024-02-24 05:12:08,15.08837654,0.0001549,53.2188,341.174,117.6396,242.4754,8.3e-05,1.033e-05,0.0,0 STARLINK-3306,1 50163U 21125H   24055.21676482  .00001033  00000-0  83000-4 0  9990,2 50163  53.2188 341.1740 0001549 117.6396 242.4754 15.08837654124345,6917.888,95.438,540.824,538.681,0.0
50163.0,STARLINK-3306,PAYLOAD,2024-02-24 19:30:36,15.08839038,0.0002258,53.2182,338.5006,119.0309,241.091,5.4248e-05,5.75e-06,0.0,0 STARLINK-3306,1 50163U 21125H   24055.81292807  .00000575  00000-0  54248-4 0  9993,2 50163  53.2182 338.5006 0002258 119.0309 241.0910 15.08839038124439,6917.883,95.438,541.31,538.186,0.0
50163.0,STARLINK-3306,PAYLOAD,2024-02-25 03:27:33,15.08833627,0.0001676,53.219,337.0187,108.0265,252.091,2.2353e-05,6.8e-07,0.0,0 STARLINK-3306,1 50163U 21125H   24056.14413427  .00000068  00000-0  22353-4 0  9992,2 50163  53.2190 337.0187 0001676 108.0265 252.0910 15.08833627124007,6917.9,95.438,540.924,538.605,0.0
50163.0,STARLINK-3306,PAYLOAD,2024-02-25 11:24:28,15.08839562,0.0001568,53.2189,335.5314,107.7375,252.3788,6.5518e-05,7.55e-06,0.0,0 STARLINK-3306,1 50163U 21125H   24056.47532965  .00000755  00000-0  65518-4 0  9990,2 50163  53.2189 335.5314 0001568 107.7375 252.3788 15.08839562124536,6917.882,95.438,540.831,538.662,0.0
50163.0,STARLINK-3306,PAYLOAD,2024-02-25 22:32:09,15.08851728,0.0001176,53.2174,333.4481,101.7316,258.3809,8.7513e-05,1.106e-05,0.0,0 STARLINK-3306,1 50163U 21125H   24056.93900080  .00001106  00000-0  87513-4 0  9998,2 50163  53.2174 333.4481 0001176 101.7316 258.3809 15.08851728124602,6917.845,95.437,540.523,538.896,0.0
50163.0,STARLINK-3306,PAYLOAD,2024-02-26 03:18:18,15.08862187,0.0001258,53.2183,332.5535,112.6268,247.4858,0.00018978,2.736e-05,0.0,0 STARLINK-3306,1 50163U 21125H   24057.13770935  .00002736  00000-0  18978-3 0  9993,2 50163  53.2183 332.5535 0001258 112.6268 247.4858 15.08862187124154,6917.813,95.436,540.548,538.807,0.0
50163.0,STARLINK-3306,PAYLOAD,2024-02-26 17:36:47,15.08839173,0.0001842,53.2172,329.8803,81.3642,278.7558,0.00013848,1.916e-05,0.0,0 STARLINK-3306,1 50163U 21125H   24057.73388864  .00001916  00000-0  13848-3 0  9995,2 50163  53.2172 329.8803 0001842  81.3642 278.7558 15.08839173124249,6917.883,95.438,541.022,538.474,0.0
50163.0,STARLINK-3306,PAYLOAD,2024-02-26 22:22:57,15.08834476,0.0001101,53.2172,328.9878,77.8952,282.2164,2.4997e-05,1.1e-06,0.0,0 STARLINK-3306,1 50163U 21125H   24057.93261404  .00000110  00000-0  24997-4 0  9990,2 50163  53.2172 328.9878 0001101  77.8952 282.2164 15.08834476124753,6917.897,95.438,540.524,539.001,0.0
50163.0,STARLINK-3306,PAYLOAD,2024-02-27 11:06:02,15.08835756,0.0001371,53.2177,326.6074,84.549,275.5659,-5.458e-05,-1.156e-05,0.0,0 STARLINK-3306,1 50163U 21125H   24058.46253016 -.00001156  00000-0 -54580-4 0  9993,2 50163  53.2177 326.6074 0001371  84.5490 275.5659 15.08835756124837,6917.893,95.438,540.707,538.81,0.0
50163.0,STARLINK-3306,PAYLOAD,2024-02-27 22:13:44,15.08835371,0.000132,53.2163,324.5295,85.0211,275.0931,-6.0677e-05,-1.253e-05,0.0,0 STARLINK-3306,1 50163U 21125H   24058.92621199 -.00001253  00000-0 -60677-4 0  9997,2 50163  53.2163 324.5295 0001320  85.0211 275.0931 15.08835371124904,6917.895,95.438,540.673,538.846,0.0
50163.0,STARLINK-3306,PAYLOAD,2024-02-28 01:24:30,15.08841448,0.0001347,53.2165,323.9349,85.6521,274.4625,-4.1766e-05,-9.53e-06,0.0,0 STARLINK-3306,1 50163U 21125H   24059.05868939 -.00000953  00000-0 -41766-4 0  9991,2 50163  53.2165 323.9349 0001347  85.6521 274.4625 15.08841448124442,6917.876,95.437,540.673,538.809,0.0
50163.0,STARLINK-3306,PAYLOAD,2024-02-28 10:56:49,15.08840634,0.0001326,53.2162,322.1496,87.7203,272.3941,-3.3414e-05,-8.2e-06,0.0,0 STARLINK-3306,1 50163U 21125H   24059.45613106 -.00000820  00000-0 -33414-4 0  9993,2 50163  53.2162 322.1496 0001326  87.7203 272.3941 15.08840634124983,6917.878,95.438,540.661,538.826,0.0
50163.0,STARLINK-3306,PAYLOAD,2024-02-28 22:04:31,15.08837346,0.0001287,53.2171,320.067,76.2593,283.8543,0.00016262,2.301e-05,0.0,0 STARLINK-3306,1 50163U 21125H   24059.91981279  .00002301  00000-0  16262-3 0  9998,2 50163  53.2171 320.0670 0001287  76.2593 283.8543 15.08837346125055,6917.889,95.438,540.644,538.863,0.0
50163.0,STARLINK-3306,PAYLOAD,2024-02-29 10:47:36,15.08845465,0.0001329,53.2171,317.6877,80.8137,279.3005,0.00012664,1.728e-05,0.0,0 STARLINK-3306,1 50163U 21125H   24060.44972819  .00001728  00000-0  12664-3 0  9992,2 50163  53.2171 317.6877 0001329  80.8137 279.3005 15.08845465124657,6917.864,95.437,540.648,538.809,0.0
50163.0,STARLINK-3306,PAYLOAD,2024-02-29 20:19:55,15.08836381,0.0001028,53.2175,315.9034,94.2882,265.8227,0.00026285,3.898e-05,0.0,0 STARLINK-3306,1 50163U 21125H   24060.84717045  .00003898  00000-0  26285-3 0  9998,2 50163  53.2175 315.9034 0001028  94.2882 265.8227 15.08836381124719,6917.891,95.438,540.468,539.045,0.0
50163.0,STARLINK-3306,PAYLOAD,2024-03-01 02:41:27,15.08851226,0.0001468,53.2174,314.7137,90.5661,269.55,0.00013349,1.838e-05,0.0,0 STARLINK-3306,1 50163U 21125H   24061.11212444  .00001838  00000-0  13349-3 0  9991,2 50163  53.2174 314.7137 0001468  90.5661 269.5500 15.08851226124755,6917.846,95.437,540.727,538.696,0.0
50163.0,STARLINK-3306,PAYLOAD,2024-03-01 20:10:42,15.08843552,0.0001477,53.2157,311.4419,91.0474,269.0687,8.8144e-05,1.115e-05,0.0,0 STARLINK-3306,1 50163U 21125H   24061.84076860  .00001115  00000-0  88144-4 0  9995,2 50163  53.2157 311.4419 0001477  91.0474 269.0687 15.08843552124867,6917.87,95.437,540.756,538.713,0.0
50163.0,STARLINK-3306,PAYLOAD,2024-03-01 21:46:05,15.08842886,0.0001544,53.2171,311.1443,89.59,270.5269,7.222e-05,8.62e-06,0.0,0 STARLINK-3306,1 50163U 21125H   24061.90701002  .00000862  00000-0  72220-4 0  9991,2 50163  53.2171 311.1443 0001544  89.5900 270.5269 15.08842886125355,6917.872,95.437,540.805,538.668,0.0
50163.0,STARLINK-3306,PAYLOAD,2024-03-01 23:21:28,15.08848085,0.0001486,53.2182,310.8446,106.5128,253.6028,5.3109e-05,5.58e-06,0.0,0 STARLINK-3306,1 50163U 21125H   24061.97324453  .00000558  00000-0  53109-4 0  9996,2 50163  53.2182 310.8446 0001486 106.5128 253.6028 15.08848085125366,6917.856,95.437,540.749,538.693,0.0
50163.0,STARLINK-3306,PAYLOAD,2024-03-02 20:01:29,15.08840446,0.0001466,53.2164,306.9816,105.7215,254.3938,1.7384e-05,-1.1e-07,0.0,0 STARLINK-3306,1 50163U 21125H   24062.83437028 -.00000011  00000-0  17384-4 0  9995,2 50163  53.2164 306.9816 0001466 105.7215 254.3938 15.08840446125012,6917.879,95.438,540.758,538.73,0.0
50163.0,STARLINK-3306,PAYLOAD,2024-03-02 21:36:52,15.08833266,0.0001313,53.2184,306.6835,110.0275,250.0859,7.3224e-05,8.77e-06,0.0,0 STARLINK-3306,1 50163U 21125H   24062.90061303  .00000877  00000-0  73224-4 0  9996,2 50163  53.2184 306.6835 0001313 110.0275 250.0859 15.08833266125509,6917.901,95.438,540.674,538.858,0.0
50163.0,STARLINK-3306,PAYLOAD,2024-03-03 08:44:34,15.08844814,0.0001339,53.217,304.6015,83.601,276.5134,6.5183e-05,7.5e-06,0.0,0 STARLINK-3306,1 50163U 21125H   24063.36428664  .00000750  00000-0  65183-4 0  9999,2 50163  53.2170 304.6015 0001339  83.6010 276.5134 15.08844814125579,6917.866,95.437,540.657,538.804,0.0
50163.0,STARLINK-3306,PAYLOAD,2024-03-03 21:27:39,15.08841916,0.0001384,53.2185,302.2253,95.0111,265.1039,5.0459e-06,-2.08e-06,0.0,0 STARLINK-3306,1 50163U 21125H   24063.89421219 -.00000208  00000-0  50459-5 0  9996,2 50163  53.2185 302.2253 0001384  95.0111 265.1039 15.08841916125659,6917.875,95.437,540.697,538.782,0.0
50163.0,STARLINK-3306,PAYLOAD,2024-03-04 00:38:25,15.08847454,0.000132,53.2178,301.6266,78.7333,281.3807,7.8957e-05,9.69e-06,0.0,0 STARLINK-3306,1 50163U 21125H   24064.02668529  .00000969  00000-0  78957-4 0  9994,2 50163  53.2178 301.6266 0001320  78.7333 281.3807 15.08847454125197,6917.858,95.437,540.636,538.809,0.0
50163.0,STARLINK-3306,PAYLOAD,2024-03-04 08:35:20,15.0885751,0.0001119,53.2169,300.1418,83.3219,276.79,0.00010386,1.366e-05,0.0,0 STARLINK-3306,1 50163U 21125H   24064.35787522  .00001366  00000-0  10386-3 0  9998,2 50163  53.2169 300.1418 0001119  83.3219 276.7900 15.08857510125243,6917.827,95.436,540.466,538.918,0.0
50163.0,STARLINK-3306,PAYLOAD,2024-03-04 21:18:27,15.08829579,0.0001514,53.2183,297.7647,90.5438,269.5728,-8.3153e-06,-4.2e-06,0.0,0 STARLINK-3306,1 50163U 21125H   24064.88782068 -.00000420  00000-0 -83153-5 0  9992,2 50163  53.2183 297.7647 0001514  90.5438 269.5728 15.08829579125327,6917.912,95.438,540.825,538.73,0.0
